STARLINK-3125           
1 49451U 21104AV  26068.67972407 -.00000018  00000+0  16923-4 0  9999
2 49451  53.2167 219.1640 0001210  87.4509 272.6621 15.08843010238772
LEMUR-2-MARHISYAM       
1 60536U 24149BW  26068.74036894  .00013075  00000+0  82973-3 0  9990
2 60536  97.6912 151.2662 0003578 107.3271 252.8349 15.09015520 85478
